SL-14 R/B               
1 16496U 86006B   26119.26313089  .00000743  00000+0  75778-4 0  9998
2 16496  82.5291 212.1438 0077939 104.8343 256.1525 14.86896249156728
COSMOS 1743             
1 16719U 86034A   26119.16388156  .00041791  00000+0  45968-3 0  9998
2 16719  82.5327  20.6847 0007380  96.6122 263.5977 15.62944756188122
SL-14 R/B               
1 16792U 86046B   26119.25540031  .00000485  00000+0  52878-4 0  9998
2 16792  82.4848  32.4060 0024510  62.6147 297.7559 14.85637490133912
SL-14 R/B               
1 16882U 86055B   26119.26089591  .00000500  00000+0  54656-4 0  9992
2 16882  82.5192  79.1239 0019341 160.2936 323.4064 14.85685808126879
AJISAI (EGS)            
1 16908U 86061A   26119.30428626 -.00000080  00000+0  12546-3 0  9994
2 16908  50.0096 297.7103 0011433  56.7048 352.1179 12.44516088474302
SL-14 R/B               
1 17567U 87024B   26119.27043268  .00000482  00000+0  51977-4 0  9994
2 17567  82.5303  45.2204 0019828  92.9101 267.4385 14.86178329 95644
COSMOS 1833             
1 17589U 87027A   26119.26288244 -.00000181  00000+0 -71254-4 0  9993
2 17589  70.9161 219.7119 0022386 135.9080 224.3831 14.13032833 17462
SL-16 R/B               
1 17590U 87027B   26119.23068549  .00000085  00000+0  66087-4 0  9995
2 17590  71.0021 169.9929 0003821  18.8487 341.2777 14.17172511 22500
SL-14 R/B               
1 17912U 87038B   26119.29129108  .00000461  00000+0  50614-4 0  9997
2 17912  82.5008 249.1250 0019182   2.0212 358.1078 14.85413230 86744
COSMOS 1844             
1 17973U 87041A   26119.17304009 -.00000278  00000+0 -11904-3 0  9996
2 17973  70.8980 287.6925 0032824 304.1487  55.6522 14.14558972 10727
SL-14 R/B               
1 18153U 87055B   26119.25933387  .00000495  00000+0  54151-4 0  9999
2 18153  82.4966 301.3607 0020014 202.5224 157.5116 14.85672082 77440
COSMOS 1867             
1 18187U 87060A   26119.23048083 -.00000031  00000+0  25844-4 0  9994
2 18187  65.0093 165.1643 0015480 281.1087  78.8256 14.31510209 27170
SL-14 R/B               
1 18749U 88001B   26119.32548540  .00000408  00000+0  44268-4 0  9995
2 18749  82.5119 147.7441 0019572  72.7090 287.6265 14.85572945 49542
COSMOS 1933             
1 18958U 88020A   26119.21016158  .00003116  00000+0  14996-3 0  9994
2 18958  82.5158 200.9200 0004689  43.4701 316.6902 15.18416970 57899
SL-3 R/B                
1 19046U 88032B   26119.21925609  .00005078  00000+0  23384-3 0  9996
2 19046  97.5234 102.3328 0027358  60.0742 300.3205 15.20423443 59785
SL-16 R/B               
1 19120U 88039B   26119.29051932  .00000035  00000+0  39527-4 0  9998
2 19120  71.0149 321.5532 0024053 262.9605  96.8784 14.19624588965563
COSMOS 1953             
1 19210U 88050A   26119.21686289  .00006756  00000+0  23662-3 0  9990
2 19210  82.5045 107.3851 0009099 312.6806  47.3666 15.29265294 45508
