[{"OBJECT_NAME":"SL-14 R/B","OBJECT_ID":"1986-006B","EPOCH":"2026-04-29T06:18:54.508896","MEAN_MOTION":14.86896249,"ECCENTRICITY":0.00779399,"INCLINATION":82.5291,"RA_OF_ASC_NODE":212.1438,"ARG_OF_PERICENTER":104.8343,"MEAN_ANOMALY":256.1525,"EPHEMERIS_TYPE":0,"CLASSIFICATION_TYPE":"U","NORAD_CAT_ID":16496,"ELEMENT_SET_NO":999,"REV_AT_EPOCH":15672,"BSTAR":7.5778132e-5,"MEAN_MOTION_DOT":7.43e-6,"MEAN_MOTION_DDOT":0},{"OBJECT_NAME":"COSMOS 1743","OBJECT_ID":"1986-034A","EPOCH":"2026-04-29T03:55:59.366784","MEAN_MOTION":15.62944756,"ECCENTRICITY":0.00073807,"INCLINATION":82.5327,"RA_OF_ASC_NODE":20.6847,"ARG_OF_PERICENTER":96.6122,"MEAN_ANOMALY":263.5977,"EPHEMERIS_TYPE":0,"CLASSIFICATION_TYPE":"U","NORAD_CAT_ID":16719,"ELEMENT_SET_NO":999,"REV_AT_EPOCH":18812,"BSTAR":0.00045967762,"MEAN_MOTION_DOT":0.00041791,"MEAN_MOTION_DDOT":0},{"OBJECT_NAME":"SL-14 R/B","OBJECT_ID":"1986-046B","EPOCH":"2026-04-29T06:07:46.586784","MEAN_MOTION":14.8563749,"ECCENTRICITY":0.002451,"INCLINATION":82.4848,"RA_OF_ASC_NODE":32.406,"ARG_OF_PERICENTER":62.6147,"MEAN_ANOMALY":297.7559,"EPHEMERIS_TYPE":0,"CLASSIFICATION_TYPE":"U","NORAD_CAT_ID":16792,"ELEMENT_SET_NO":999,"REV_AT_EPOCH":13391,"BSTAR":5.2877914e-5,"MEAN_MOTION_DOT":4.85e-6,"MEAN_MOTION_DDOT":0},{"OBJECT_NAME":"SL-14 R/B","OBJECT_ID":"1986-055B","EPOCH":"2026-04-29T06:15:41.406624","MEAN_MOTION":14.85685808,"ECCENTRICITY":0.00193414,"INCLINATION":82.5192,"RA_OF_ASC_NODE":79.1239,"ARG_OF_PERICENTER":160.2936,"MEAN_ANOMALY":323.4064,"EPHEMERIS_TYPE":0,"CLASSIFICATION_TYPE":"U","NORAD_CAT_ID":16882,"ELEMENT_SET_NO":999,"REV_AT_EPOCH":12687,"BSTAR":5.4656372e-5,"MEAN_MOTION_DOT":5.0e-6,"MEAN_MOTION_DDOT":0},{"OBJECT_NAME":"AJISAI (EGS)","OBJECT_ID":"1986-061A","EPOCH":"2026-04-29T07:18:10.332864","MEAN_MOTION":12.44516088,"ECCENTRICITY":0.00114337,"INCLINATION":50.0096,"RA_OF_ASC_NODE":297.7103,"ARG_OF_PERICENTER":56.7048,"MEAN_ANOMALY":352.1179,"EPHEMERIS_TYPE":0,"CLASSIFICATION_TYPE":"U","NORAD_CAT_ID":16908,"ELEMENT_SET_NO":999,"REV_AT_EPOCH":47430,"BSTAR":0.00012546024,"MEAN_MOTION_DOT":-8.0e-7,"MEAN_MOTION_DDOT":0},{"OBJECT_NAME":"SL-14 R/B","OBJECT_ID":"1987-024B","EPOCH":"2026-04-29T06:29:25.383552","MEAN_MOTION":14.86178329,"ECCENTRICITY":0.00198282,"INCLINATION":82.5303,"RA_OF_ASC_NODE":45.2204,"ARG_OF_PERICENTER":92.9101,"MEAN_ANOMALY":267.4385,"EPHEMERIS_TYPE":0,"CLASSIFICATION_TYPE":"U","NORAD_CAT_ID":17567,"ELEMENT_SET_NO":999,"REV_AT_EPOCH":9564,"BSTAR":5.1977257e-5,"MEAN_MOTION_DOT":4.82e-6,"MEAN_MOTION_DDOT":0},{"OBJECT_NAME":"COSMOS 1833","OBJECT_ID":"1987-027A","EPOCH":"2026-04-29T06:18:33.042816","MEAN_MOTION":14.13032833,"ECCENTRICITY":0.00223863,"INCLINATION":70.9161,"RA_OF_ASC_NODE":219.7119,"ARG_OF_PERICENTER":135.908,"MEAN_ANOMALY":224.3831,"EPHEMERIS_TYPE":0,"CLASSIFICATION_TYPE":"U","NORAD_CAT_ID":17589,"ELEMENT_SET_NO":999,"REV_AT_EPOCH":1746,"BSTAR":-7.1253643e-5,"MEAN_MOTION_DOT":-1.81e-6,"MEAN_MOTION_DDOT":0},{"OBJECT_NAME":"SL-16 R/B","OBJECT_ID":"1987-027B","EPOCH":"2026-04-29T05:32:11.226336","MEAN_MOTION":14.17172511,"ECCENTRICITY":0.0003821,"INCLINATION":71.0021,"RA_OF_ASC_NODE":169.9929,"ARG_OF_PERICENTER":18.8487,"MEAN_ANOMALY":341.2777,"EPHEMERIS_TYPE":0,"CLASSIFICATION_TYPE":"U","NORAD_CAT_ID":17590,"ELEMENT_SET_NO":999,"REV_AT_EPOCH":2250,"BSTAR":6.6086697e-5,"MEAN_MOTION_DOT":8.5e-7,"MEAN_MOTION_DDOT":0},{"OBJECT_NAME":"SL-14 R/B","OBJECT_ID":"1987-038B","EPOCH":"2026-04-29T06:59:27.549312","MEAN_MOTION":14.8541323,"ECCENTRICITY":0.00191823,"INCLINATION":82.5008,"RA_OF_ASC_NODE":249.125,"ARG_OF_PERICENTER":2.0212,"MEAN_ANOMALY":358.1078,"EPHEMERIS_TYPE":0,"CLASSIFICATION_TYPE":"U","NORAD_CAT_ID":17912,"ELEMENT_SET_NO":999,"REV_AT_EPOCH":8674,"BSTAR":5.0614301e-5,"MEAN_MOTION_DOT":4.61e-6,"MEAN_MOTION_DDOT":0},{"OBJECT_NAME":"COSMOS 1844","OBJECT_ID":"1987-041A","EPOCH":"2026-04-29T04:09:10.663776","MEAN_MOTION":14.14558972,"ECCENTRICITY":0.00328246,"INCLINATION":70.898,"RA_OF_ASC_NODE":287.6925,"ARG_OF_PERICENTER":304.1487,"MEAN_ANOMALY":55.6522,"EPHEMERIS_TYPE":0,"CLASSIFICATION_TYPE":"U","NORAD_CAT_ID":17973,"ELEMENT_SET_NO":999,"REV_AT_EPOCH":1072,"BSTAR":-0.00011904131,"MEAN_MOTION_DOT":-2.78e-6,"MEAN_MOTION_DDOT":0},{"OBJECT_NAME":"SL-14 R/B","OBJECT_ID":"1987-055B","EPOCH":"2026-04-29T06:13:26.446368","MEAN_MOTION":14.85672082,"ECCENTRICITY":0.00200149,"INCLINATION":82.4966,"RA_OF_ASC_NODE":301.3607,"ARG_OF_PERICENTER":202.5224,"MEAN_ANOMALY":157.5116,"EPHEMERIS_TYPE":0,"CLASSIFICATION_TYPE":"U","NORAD_CAT_ID":18153,"ELEMENT_SET_NO":999,"REV_AT_EPOCH":7744,"BSTAR":5.4150757e-5,"MEAN_MOTION_DOT":4.95e-6,"MEAN_MOTION_DDOT":0},{"OBJECT_NAME":"COSMOS 1867","OBJECT_ID":"1987-060A","EPOCH":"2026-04-29T05:31:53.543712","MEAN_MOTION":14.31510209,"ECCENTRICITY":0.00154802,"INCLINATION":65.0093,"RA_OF_ASC_NODE":165.1643,"ARG_OF_PERICENTER":281.1087,"MEAN_ANOMALY":78.8256,"EPHEMERIS_TYPE":0,"CLASSIFICATION_TYPE":"U","NORAD_CAT_ID":18187,"ELEMENT_SET_NO":999,"REV_AT_EPOCH":2717,"BSTAR":2.5844103e-5,"MEAN_MOTION_DOT":-3.1e-7,"MEAN_MOTION_DDOT":0},{"OBJECT_NAME":"SL-14 R/B","OBJECT_ID":"1988-001B","EPOCH":"2026-04-29T07:48:41.938560","MEAN_MOTION":14.85572945,"ECCENTRICITY":0.0019572,"INCLINATION":82.5119,"RA_OF_ASC_NODE":147.7441,"ARG_OF_PERICENTER":72.709,"MEAN_ANOMALY":287.6265,"EPHEMERIS_TYPE":0,"CLASSIFICATION_TYPE":"U","NORAD_CAT_ID":18749,"ELEMENT_SET_NO":999,"REV_AT_EPOCH":4954,"BSTAR":4.4268142e-5,"MEAN_MOTION_DOT":4.08e-6,"MEAN_MOTION_DDOT":0},{"OBJECT_NAME":"COSMOS 1933","OBJECT_ID":"1988-020A","EPOCH":"2026-04-29T05:02:37.960512","MEAN_MOTION":15.1841697,"ECCENTRICITY":0.00046895,"INCLINATION":82.5158,"RA_OF_ASC_NODE":200.92,"ARG_OF_PERICENTER":43.4701,"MEAN_ANOMALY":316.6902,"EPHEMERIS_TYPE":0,"CLASSIFICATION_TYPE":"U","NORAD_CAT_ID":18958,"ELEMENT_SET_NO":999,"REV_AT_EPOCH":5789,"BSTAR":0.00014995614,"MEAN_MOTION_DOT":3.116e-5,"MEAN_MOTION_DDOT":0},{"OBJECT_NAME":"SL-3 R/B","OBJECT_ID":"1988-032B","EPOCH":"2026-04-29T05:15:43.726176","MEAN_MOTION":15.20423443,"ECCENTRICITY":0.00273586,"INCLINATION":97.5234,"RA_OF_ASC_NODE":102.3328,"ARG_OF_PERICENTER":60.0742,"MEAN_ANOMALY":300.3205,"EPHEMERIS_TYPE":0,"CLASSIFICATION_TYPE":"U","NORAD_CAT_ID":19046,"ELEMENT_SET_NO":999,"REV_AT_EPOCH":5978,"BSTAR":0.00023383678,"MEAN_MOTION_DOT":5.078e-5,"MEAN_MOTION_DDOT":0},{"OBJECT_NAME":"SL-16 R/B","OBJECT_ID":"1988-039B","EPOCH":"2026-04-29T06:58:20.869248","MEAN_MOTION":14.19624588,"ECCENTRICITY":0.00240531,"INCLINATION":71.0149,"RA_OF_ASC_NODE":321.5532,"ARG_OF_PERICENTER":262.9605,"MEAN_ANOMALY":96.8784,"EPHEMERIS_TYPE":0,"CLASSIFICATION_TYPE":"U","NORAD_CAT_ID":19120,"ELEMENT_SET_NO":999,"REV_AT_EPOCH":96556,"BSTAR":3.9527093e-5,"MEAN_MOTION_DOT":3.5e-7,"MEAN_MOTION_DDOT":0},{"OBJECT_NAME":"COSMOS 1953","OBJECT_ID":"1988-050A","EPOCH":"2026-04-29T05:12:16.953696","MEAN_MOTION":15.29265294,"ECCENTRICITY":0.00090991,"INCLINATION":82.5045,"RA_OF_ASC_NODE":107.3851,"ARG_OF_PERICENTER":312.6806,"MEAN_ANOMALY":47.3666,"EPHEMERIS_TYPE":0,"CLASSIFICATION_TYPE":"U","NORAD_CAT_ID":19210,"ELEMENT_SET_NO":999,"REV_AT_EPOCH":4550,"BSTAR":0.00023662021,"MEAN_MOTION_DOT":6.756e-5,"MEAN_MOTION_DDOT":0}]
